#dP2018  3  8  0  0  0.00000000      96 __u+U ITR00 FIT  IAC
## 1991 345600.00000000   900.00000000 58185 0.0000000000000
+   88   C01C02C03C04C05C06C07C08C09C10C11C12C13C14E01E02E03
+        E04E05E07E08E09E11E12E14E18E19E24E26E30G01G02G03G04
+        G05G06G07G08G09G10G11G12G13G14G15G16G17G19G20G21G22
+        G23G24G25G26G27G28G29G30G31G32J01J02J03R01R02R03R04
+        R05R06R07R08R09R10R11R13R14R15R16R17R18R19R20R21R22
+        R23R24R26  0  0  0  0  0  0  0  0  0  0  0  0  0  0
++         0  0  0  0  0  0  0  0  0  0  0  0  0  0  0  0  0
++         0  0  0  0  0  0  0  0  0  0  0  0  0  0  0  0  0
++         0  0  0  0  0  0  0  0  0  0  0  0  0  0  0  0  0
++         0  0  0  0  0  0  0  0  0  0  0  0  0  0  0  0  0
++         0  0  0  0  0  0  0  0  0  0  0  0  0  0  0  0  0
++         0  0  0  0  0  0  0  0  0  0  0  0  0  0  0  0  0
%c M  cc GPS ccc cccc cccc cccc cccc ccccc ccccc ccccc ccccc
%c cc cc ccc ccc cccc cccc cccc cccc ccccc ccccc ccccc ccccc
%f  0.0000000  0.000000000  0.00000000000  0.000000000000000
%f  0.0000000  0.000000000  0.00000000000  0.000000000000000
%i    0    0    0    0      0      0      0      0         0
%i    0    0    0    0      0      0      0      0         0
/*                                                          
/*   RSA / INFORMATION & ANALYSIS CENTER (IAC) OF MCC       
/*   ULTRA-RAPID DETERMINATION                              
/* PCV:IGS14_1984 OL/AL:FES2004  NONE     YN ORB:CoN CLK:CoN
*  2018 03 08 11 15  0.00000000
PC01 -32311.395770  27063.864872    964.608258    456.985424
PC02   4359.276121  41936.909384   -473.402984   -277.022328
PC03 -14832.010275  39458.241174    841.555908   -425.836241
PC04 -39634.134434  14440.489547    541.592731     23.128768
PC05  21863.815987  36040.241282   -721.576632   -165.706090
PC06      0.000000      0.000000      0.000000 999999.999999
PC07 -23564.894341  28633.977768  19809.327872   -337.644906
PC08 -12444.576224  37838.393067  14240.843740    216.968310
PC09   5768.192068  30422.045433 -28339.479109   -335.437982
PC10 -10422.142058  29425.321521  28297.634053    -67.858800
PC11   5243.229717 -20716.416245 -17847.033067   -419.481693
PC12  15710.599223  -1568.727094 -22957.469229    390.343349
PC13  -2675.043242  42189.174975  -1157.156565   -237.418344
PC14  13782.163087 -12518.620348  20822.857061    271.470631
PE01  26252.629746  -5954.940152  12301.989663   -293.222641
PE02 -26266.573601   5973.310166 -12289.847476      6.861469
PE03 -26365.366785  -5114.003445 -12435.736595     -7.229192
PE04  14590.028014 -10752.811540  23404.286539      9.928294
PE05 -22730.826224 -18036.872780   5854.357276    308.198084
PE07   5803.015147  20371.034778 -20672.197262     71.732432
PE08 -14437.346874  10755.141141 -23492.103058   6628.155085
PE09  -5985.104176 -20191.997667  20801.289775   6854.782560
PE11   -631.000201 -29600.563582    568.848036   1844.754871
PE12  11368.716126 -21300.472417 -17126.055857   3665.517749
PE14   6740.287538  22621.697375   7206.676613   6619.263730
PE18    626.808083 -26875.728897 -17009.117340   6374.125877
PE19  26728.459068   6574.388751  10878.520401     20.116902
PE24   5461.092259 -19452.163832 -21637.111985   6824.395931
PE26  11947.186005  20694.491553 -17459.391053   6189.459988
PE30 -22543.770568  17985.404849   6691.456797   6019.587260
PG01 -13754.001307  22103.236423   4263.609610    -32.904315
PG02  16599.617563  -3019.446039 -19895.665483    180.210958
PG03 -17025.504894  12631.739107 -15982.493194     24.165691
PG04 -20073.601460  -9117.719384 -15262.554850     42.840518
PG05  26581.805587  -1960.157054  -1143.741755    -12.597477
PG06  11229.723253  10773.155706 -21484.754530    413.182761
PG07  -3362.934062  23903.519914  10758.082588    226.193701
PG08 -12736.506908   8079.570022  21919.964796    -93.650788
PG09   5291.385549  22792.595206 -12593.224240    505.483302
PG10 -15553.856194 -11479.633990  18316.106405    167.993218
PG11  -9436.352808  21851.575791  11367.661914   -737.177951
PG12  18874.757704 -10603.485944 -15425.870466    346.491333
PG13  16898.193796   2087.996369  20265.533984    -95.564863
PG14 -18144.889407 -16120.322978 -10703.893300    -94.876538
PG15  12608.014099  -9553.252543  21130.977715   -356.575098
PG16 -26779.973326   -487.666103   -879.483032     30.739694
PG17  15402.034710  21538.946461  -2444.244462   -117.456804
PG19  17557.468282  17037.604867 -10368.695604   -452.277828
PG20  16671.113563 -14395.335246  14668.481060    502.638295
PG21   -775.273136 -23412.004018  13307.388019   -422.067310
PG22 -22336.787149  10468.345070  -9611.830561   -315.918673
PG23  -6062.557580  16167.967322 -19796.413193   -218.696493
PG24  14662.025821 -20582.368699   7571.218375    -47.011476
PG25   5137.318070 -14997.185423 -21441.591880   -550.145942
PG26 -23564.691291  -5476.144694 -11116.751842   -225.248073
PG27 -18848.868574  -5899.560619  17816.194564    369.076338
PG28  11206.569005  13564.053047  20508.908146    695.157427
PG29  -1109.145885 -21574.528804 -15478.687141    485.585372
PG30   3284.816643  20006.200102  17083.481372     96.928016
PG31 -12096.059953  -9369.344001 -21635.619393    136.882940
PG32 -16603.956540 -20653.229866  -2300.972262   -529.532984
PJ01 -32052.266268  17955.010101 -15991.407860    -71.184805
PJ02 -27625.949941  31625.105402     40.977161     -0.009613
PJ03 -25791.553604  22800.702322  29456.660241    -16.306855
PR01   5971.141229  -9598.856456  22867.210372     23.067993
PR02 -14240.375475 -13582.727683  16293.247388    298.798920
PR03 -23909.254127  -8951.126250     28.268168    126.122612
PR04 -19350.200400   1215.684953 -16570.404410    252.583542
PR05  -4131.296149  10318.351322 -22967.640858   -260.810654
PR06  15097.254314  13402.161215 -15586.013931    128.358357
PR07  23947.739953   8720.802644    496.785766    -31.959302
PR08  19729.570375   -848.831984  16194.045295     38.308158
PR09   1706.944194  12371.564960  22242.399623     43.644436
PR10  15829.246995   -937.332984  19980.925286     19.922427
PR11  20956.667965 -13466.810303   5586.826699    -23.506097
PR13  -2242.410040 -11834.592375 -22506.963242     -8.204375
PR14 -15743.930124    540.938310 -20053.421165     25.273140
PR15 -20937.634010  11468.239800  -9131.264188     -7.234598
PR16 -13790.311042  18437.065580  11081.711408     87.316055
PR17 -11092.307529 -12117.106414  19518.427681    114.939358
PR18  -9586.327749   6184.071580  22827.378324    187.438993
PR19  -3047.999248  21536.851299  13326.598934    -46.700603
PR20   5762.733996  24275.389333  -5155.563042   -329.863343
PR21  11060.386008  11908.074646 -19660.053893     26.207155
PR22   8981.237832  -8369.868935 -22371.080954    -24.721339
PR23   1001.574806 -23349.759068 -10231.866626    140.464016
PR24  -6500.854202 -23967.212975   5858.570977   -163.393261
PR26   6110.417979  24300.146680  -4812.751510      3.788632
EOF
